     2.11           N: GNSS NAV DATA    E: Galileo          RINEX VERSION / TYPE
CONVBIN 2.4.3                           20190509 123410 UTC PGM / RUN BY / DATE 
log: ../ubx/../ubx/2019-02-18_23-03-42.ubx                  COMMENT             
format: u-blox                                              COMMENT             
                                                            END OF HEADER       
E 8 2019  2 18 11 40  0  .640215905150E-02 -.635225205770E-11  .000000000000E+00
      .860000000000E+02  .298437500000E+02  .322084844698E-08  .236616258284E+01
      .144541263580E-05  .199981033802E-03  .118259340525E-04  .544061974144E+04
      .128400000000E+06 -.596046447754E-07  .492490124979E+00 -.391155481339E-07
      .959128622277E+00  .863125000000E+02  .170927289865E-01 -.548022827350E-08
      .783961226560E-09  .100000000000E+01  .204100000000E+04  .000000000000E+00
      .327670000000E+05  .000000000000E+00 -.861473381519E-08 -.977888703346E-08
      .129079000000E+06  .000000000000E+00
E30 2019  2 18 11 40  0  .509714736836E-02 -.305249159283E-10  .000000000000E+00
      .860000000000E+02 -.409375000000E+01  .256832126660E-08 -.583065700147E+00
     -.176951289177E-06  .416922383010E-03  .134538859129E-04  .544061522484E+04
      .128400000000E+06  .130385160446E-07  .259764674779E+01  .651925802231E-07
      .986906542950E+00  .624062500000E+02  .870850115226E+00 -.520235955630E-08
     -.728601777760E-09  .100000000000E+01  .204100000000E+04  .000000000000E+00
      .327670000000E+05  .000000000000E+00 -.279396772385E-08 -.349245965481E-08
      .129119000000E+06  .000000000000E+00
